[{"OBJECT_NAME":"ONEWEB-0311","OBJECT_ID":"2021-075Y","EPOCH":"2025-10-04T19:09:39.801312","MEAN_MOTION":13.17646902,"ECCENTRICITY":0.0001865,"INCLINATION":87.9083,"RA_OF_ASC_NODE":56.6413,"ARG_OF_PERICENTER":86.3893,"MEAN_ANOMALY":273.7451,"EPHEMERIS_TYPE":0,"CLASSIFICATION_TYPE":"U","NORAD_CAT_ID":49097,"ELEMENT_SET_NO":999,"REV_AT_EPOCH":19999,"BSTAR":-3.6676e-5,"MEAN_MOTION_DOT":-1.0e-8,"MEAN_MOTION_DDOT":0},{"OBJECT_NAME":"ONEWEB-0312","OBJECT_ID":"2021-075Z","EPOCH":"2025-10-04T19:31:30.971424","MEAN_MOTION":13.17649902,"ECCENTRICITY":0.0002057,"INCLINATION":87.9076,"RA_OF_ASC_NODE":56.6691,"ARG_OF_PERICENTER":94.5996,"MEAN_ANOMALY":265.5371,"EPHEMERIS_TYPE":0,"CLASSIFICATION_TYPE":"U","NORAD_CAT_ID":49098,"ELEMENT_SET_NO":999,"REV_AT_EPOCH":19997,"BSTAR":-0.00028668,"MEAN_MOTION_DOT":-9.8e-7,"MEAN_MOTION_DDOT":0},{"OBJECT_NAME":"ONEWEB-0313","OBJECT_ID":"2021-075AA","EPOCH":"2025-10-04T19:38:36.506112","MEAN_MOTION":13.17647382,"ECCENTRICITY":0.0001846,"INCLINATION":87.9071,"RA_OF_ASC_NODE":56.6782,"ARG_OF_PERICENTER":94.5115,"MEAN_ANOMALY":265.6227,"EPHEMERIS_TYPE":0,"CLASSIFICATION_TYPE":"U","NORAD_CAT_ID":49099,"ELEMENT_SET_NO":999,"REV_AT_EPOCH":19996,"BSTAR":-0.00068476,"MEAN_MOTION_DOT":-2.53e-6,"MEAN_MOTION_DDOT":0},{"OBJECT_NAME":"ONEWEB-0314","OBJECT_ID":"2021-075AB","EPOCH":"2025-10-04T20:39:33.754176","MEAN_MOTION":13.1765099,"ECCENTRICITY":0.0002128,"INCLINATION":87.9091,"RA_OF_ASC_NODE":56.6125,"ARG_OF_PERICENTER":93.6307,"MEAN_ANOMALY":266.5068,"EPHEMERIS_TYPE":0,"CLASSIFICATION_TYPE":"U","NORAD_CAT_ID":49100,"ELEMENT_SET_NO":999,"REV_AT_EPOCH":19994,"BSTAR":-0.00052236,"MEAN_MOTION_DOT":-1.9e-6,"MEAN_MOTION_DDOT":0},{"OBJECT_NAME":"ONEWEB-0315","OBJECT_ID":"2021-075AC","EPOCH":"2025-10-05T01:02:47.860800","MEAN_MOTION":13.1244102,"ECCENTRICITY":0.0001779,"INCLINATION":87.8942,"RA_OF_ASC_NODE":41.3269,"ARG_OF_PERICENTER":86.4071,"MEAN_ANOMALY":273.7261,"EPHEMERIS_TYPE":0,"CLASSIFICATION_TYPE":"U","NORAD_CAT_ID":49101,"ELEMENT_SET_NO":999,"REV_AT_EPOCH":20170,"BSTAR":0.00028658,"MEAN_MOTION_DOT":1.16e-6,"MEAN_MOTION_DDOT":0},{"OBJECT_NAME":"ONEWEB-0316","OBJECT_ID":"2021-075AD","EPOCH":"2025-10-05T05:07:53.501088","MEAN_MOTION":13.18686863,"ECCENTRICITY":0.000182,"INCLINATION":87.9218,"RA_OF_ASC_NODE":26.0997,"ARG_OF_PERICENTER":96.7865,"MEAN_ANOMALY":263.3474,"EPHEMERIS_TYPE":0,"CLASSIFICATION_TYPE":"U","NORAD_CAT_ID":49102,"ELEMENT_SET_NO":999,"REV_AT_EPOCH":20360,"BSTAR":-0.00025313,"MEAN_MOTION_DOT":-8.7e-7,"MEAN_MOTION_DDOT":0},{"OBJECT_NAME":"ONEWEB-0317","OBJECT_ID":"2021-075AE","EPOCH":"2025-10-05T00:53:27.091104","MEAN_MOTION":13.12441206,"ECCENTRICITY":0.0002035,"INCLINATION":87.8945,"RA_OF_ASC_NODE":41.3436,"ARG_OF_PERICENTER":122.7717,"MEAN_ANOMALY":237.3608,"EPHEMERIS_TYPE":0,"CLASSIFICATION_TYPE":"U","NORAD_CAT_ID":49103,"ELEMENT_SET_NO":999,"REV_AT_EPOCH":20172,"BSTAR":0.00077675,"MEAN_MOTION_DOT":2.92e-6,"MEAN_MOTION_DDOT":0},{"OBJECT_NAME":"ONEWEB-0318","OBJECT_ID":"2021-075AF","EPOCH":"2025-10-05T05:03:08.661888","MEAN_MOTION":13.18687457,"ECCENTRICITY":0.0001807,"INCLINATION":87.9222,"RA_OF_ASC_NODE":26.0869,"ARG_OF_PERICENTER":92.6781,"MEAN_ANOMALY":267.4558,"EPHEMERIS_TYPE":0,"CLASSIFICATION_TYPE":"U","NORAD_CAT_ID":49104,"ELEMENT_SET_NO":999,"REV_AT_EPOCH":20356,"BSTAR":-5.3119e-5,"MEAN_MOTION_DOT":-8.0e-8,"MEAN_MOTION_DDOT":0},{"OBJECT_NAME":"ONEWEB-0319","OBJECT_ID":"2021-075AG","EPOCH":"2025-10-04T19:12:04.853952","MEAN_MOTION":13.17648227,"ECCENTRICITY":0.0001975,"INCLINATION":87.9076,"RA_OF_ASC_NODE":56.6651,"ARG_OF_PERICENTER":85.3109,"MEAN_ANOMALY":274.8248,"EPHEMERIS_TYPE":0,"CLASSIFICATION_TYPE":"U","NORAD_CAT_ID":49105,"ELEMENT_SET_NO":999,"REV_AT_EPOCH":19997,"BSTAR":-0.00082154,"MEAN_MOTION_DOT":-3.06e-6,"MEAN_MOTION_DDOT":0},{"OBJECT_NAME":"ONEWEB-0323","OBJECT_ID":"2021-075AH","EPOCH":"2025-10-04T19:10:06.415968","MEAN_MOTION":13.12443177,"ECCENTRICITY":0.0002179,"INCLINATION":87.8941,"RA_OF_ASC_NODE":41.3772,"ARG_OF_PERICENTER":84.006,"MEAN_ANOMALY":276.1317,"EPHEMERIS_TYPE":0,"CLASSIFICATION_TYPE":"U","NORAD_CAT_ID":49106,"ELEMENT_SET_NO":999,"REV_AT_EPOCH":20105,"BSTAR":0.0013377,"MEAN_MOTION_DOT":4.94e-6,"MEAN_MOTION_DDOT":0},{"OBJECT_NAME":"ONEWEB-0329","OBJECT_ID":"2021-075AJ","EPOCH":"2025-10-04T19:24:15.327936","MEAN_MOTION":13.17650279,"ECCENTRICITY":0.0001879,"INCLINATION":87.9076,"RA_OF_ASC_NODE":56.6671,"ARG_OF_PERICENTER":94.1813,"MEAN_ANOMALY":265.9533,"EPHEMERIS_TYPE":0,"CLASSIFICATION_TYPE":"U","NORAD_CAT_ID":49107,"ELEMENT_SET_NO":999,"REV_AT_EPOCH":19995,"BSTAR":7.8498e-5,"MEAN_MOTION_DOT":4.3e-7,"MEAN_MOTION_DDOT":0},{"OBJECT_NAME":"ONEWEB-0330","OBJECT_ID":"2021-075AK","EPOCH":"2025-10-04T19:25:27.656832","MEAN_MOTION":13.17649732,"ECCENTRICITY":0.0001894,"INCLINATION":87.9077,"RA_OF_ASC_NODE":56.671,"ARG_OF_PERICENTER":97.7123,"MEAN_ANOMALY":262.4224,"EPHEMERIS_TYPE":0,"CLASSIFICATION_TYPE":"U","NORAD_CAT_ID":49108,"ELEMENT_SET_NO":999,"REV_AT_EPOCH":19999,"BSTAR":0.00013266,"MEAN_MOTION_DOT":6.4e-7,"MEAN_MOTION_DDOT":0},{"OBJECT_NAME":"ONEWEB-0292","OBJECT_ID":"2021-083A","EPOCH":"2025-10-05T04:46:46.600608","MEAN_MOTION":13.13469878,"ECCENTRICITY":0.0001836,"INCLINATION":87.905,"RA_OF_ASC_NODE":10.9305,"ARG_OF_PERICENTER":95.8189,"MEAN_ANOMALY":264.3149,"EPHEMERIS_TYPE":0,"CLASSIFICATION_TYPE":"U","NORAD_CAT_ID":49186,"ELEMENT_SET_NO":999,"REV_AT_EPOCH":19745,"BSTAR":-0.00017969,"MEAN_MOTION_DOT":-5.3e-7,"MEAN_MOTION_DDOT":0},{"OBJECT_NAME":"ONEWEB-0303","OBJECT_ID":"2021-083B","EPOCH":"2025-10-05T04:58:24.680640","MEAN_MOTION":13.18685682,"ECCENTRICITY":0.0001845,"INCLINATION":87.9223,"RA_OF_ASC_NODE":26.0879,"ARG_OF_PERICENTER":94.2134,"MEAN_ANOMALY":265.9209,"EPHEMERIS_TYPE":0,"CLASSIFICATION_TYPE":"U","NORAD_CAT_ID":49187,"ELEMENT_SET_NO":999,"REV_AT_EPOCH":19637,"BSTAR":5.1104e-5,"MEAN_MOTION_DOT":3.3e-7,"MEAN_MOTION_DDOT":0},{"OBJECT_NAME":"ONEWEB-0306","OBJECT_ID":"2021-083C","EPOCH":"2025-10-05T01:05:38.340960","MEAN_MOTION":13.1868573,"ECCENTRICITY":0.000184,"INCLINATION":87.9218,"RA_OF_ASC_NODE":26.1054,"ARG_OF_PERICENTER":106.9514,"MEAN_ANOMALY":253.182,"EPHEMERIS_TYPE":0,"CLASSIFICATION_TYPE":"U","NORAD_CAT_ID":49188,"ELEMENT_SET_NO":999,"REV_AT_EPOCH":19639,"BSTAR":-8.1737e-5,"MEAN_MOTION_DOT":-1.9e-7,"MEAN_MOTION_DDOT":0},{"OBJECT_NAME":"ONEWEB-0307","OBJECT_ID":"2021-083D","EPOCH":"2025-10-05T04:38:14.374752","MEAN_MOTION":13.13475313,"ECCENTRICITY":0.0001774,"INCLINATION":87.9039,"RA_OF_ASC_NODE":10.9273,"ARG_OF_PERICENTER":102.9542,"MEAN_ANOMALY":257.1785,"EPHEMERIS_TYPE":0,"CLASSIFICATION_TYPE":"U","NORAD_CAT_ID":49189,"ELEMENT_SET_NO":999,"REV_AT_EPOCH":19745,"BSTAR":0.00039514,"MEAN_MOTION_DOT":1.57e-6,"MEAN_MOTION_DDOT":0},{"OBJECT_NAME":"ONEWEB-0320","OBJECT_ID":"2021-083E","EPOCH":"2025-10-05T04:53:37.595904","MEAN_MOTION":13.18666155,"ECCENTRICITY":0.0001752,"INCLINATION":87.922,"RA_OF_ASC_NODE":26.1024,"ARG_OF_PERICENTER":100.1505,"MEAN_ANOMALY":259.9824,"EPHEMERIS_TYPE":0,"CLASSIFICATION_TYPE":"U","NORAD_CAT_ID":49190,"ELEMENT_SET_NO":999,"REV_AT_EPOCH":19637,"BSTAR":-5.6033e-5,"MEAN_MOTION_DOT":-9.0e-8,"MEAN_MOTION_DDOT":0}]
