ONEWEB-0311             
1 49097U 21075Y   25277.79837733 -.00000001  00000+0 -36676-4 0  9998
2 49097  87.9083  56.6413 0001865  86.3893 273.7451 13.17646902199993
ONEWEB-0312             
1 49098U 21075Z   25277.81355291 -.00000098  00000+0 -28668-3 0  9993
2 49098  87.9076  56.6691 0002057  94.5996 265.5371 13.17649902199974
ONEWEB-0313             
1 49099U 21075AA  25277.81847808 -.00000253  00000+0 -68476-3 0  9998
2 49099  87.9071  56.6782 0001846  94.5115 265.6227 13.17647382199969
ONEWEB-0314             
1 49100U 21075AB  25277.86080734 -.00000190  00000+0 -52236-3 0  9990
2 49100  87.9091  56.6125 0002128  93.6307 266.5068 13.17650990199942
ONEWEB-0315             
1 49101U 21075AC  25278.04360950  .00000116  00000+0  28658-3 0  9990
2 49101  87.8942  41.3269 0001779  86.4071 273.7261 13.12441020201706
ONEWEB-0316             
1 49102U 21075AD  25278.21381367 -.00000087  00000+0 -25313-3 0  9999
2 49102  87.9218  26.0997 0001820  96.7865 263.3474 13.18686863203608
ONEWEB-0317             
1 49103U 21075AE  25278.03711911  .00000292  00000+0  77675-3 0  9996
2 49103  87.8945  41.3436 0002035 122.7717 237.3608 13.12441206201723
ONEWEB-0318             
1 49104U 21075AF  25278.21051692 -.00000008  00000+0 -53119-4 0  9995
2 49104  87.9222  26.0869 0001807  92.6781 267.4558 13.18687457203563
ONEWEB-0319             
1 49105U 21075AG  25277.80005618 -.00000306  00000+0 -82154-3 0  9998
2 49105  87.9076  56.6651 0001975  85.3109 274.8248 13.17648227199976
ONEWEB-0323             
1 49106U 21075AH  25277.79868537  .00000494  00000+0  13377-2 0  9990
2 49106  87.8941  41.3772 0002179  84.0060 276.1317 13.12443177201058
ONEWEB-0329             
1 49107U 21075AJ  25277.80851074  .00000043  00000+0  78498-4 0  9998
2 49107  87.9076  56.6671 0001879  94.1813 265.9533 13.17650279199959
ONEWEB-0330             
1 49108U 21075AK  25277.80934788  .00000064  00000+0  13266-3 0  9997
2 49108  87.9077  56.6710 0001894  97.7123 262.4224 13.17649732199990
ONEWEB-0292             
1 49186U 21083A   25278.19915047 -.00000053  00000+0 -17969-3 0  9996
2 49186  87.9050  10.9305 0001836  95.8189 264.3149 13.13469878197450
ONEWEB-0303             
1 49187U 21083B   25278.20723010  .00000033  00000+0  51104-4 0  9992
2 49187  87.9223  26.0879 0001845  94.2134 265.9209 13.18685682196372
ONEWEB-0306             
1 49188U 21083C   25278.04558265 -.00000019  00000+0 -81737-4 0  9994
2 49188  87.9218  26.1054 0001840 106.9514 253.1820 13.18685730196395
ONEWEB-0307             
1 49189U 21083D   25278.19322193  .00000157  00000+0  39514-3 0  9996
2 49189  87.9039  10.9273 0001774 102.9542 257.1785 13.13475313197455
ONEWEB-0320             
1 49190U 21083E   25278.20390736 -.00000009  00000+0 -56033-4 0  9992
2 49190  87.9220  26.1024 0001752 100.1505 259.9824 13.18666155196372
